OBJECT_NAME,OBJECT_ID,EPOCH,MEAN_MOTION,ECCENTRICITY,INCLINATION,RA_OF_ASC_NODE,ARG_OF_PERICENTER,MEAN_ANOMALY,EPHEMERIS_TYPE,CLASSIFICATION_TYPE,NORAD_CAT_ID,ELEMENT_SET_NO,REV_AT_EPOCH,BSTAR,MEAN_MOTION_DOT,MEAN_MOTION_DDOT
STARLINK-37108,2026-053M,2026-07-04T09:29:00.666240,15.33503728,.00008636,97.2857,60.2783,200.0468,160.0741,0,U,68218,999,1810,.1501678E-2,.48809E-3,0
STARLINK-37106,2026-053N,2026-07-04T14:07:01.045920,15.33467085,.00018542,97.2844,60.4731,93.0820,267.0635,0,U,68219,999,1813,.14934135E-2,.48483E-3,0
STARLINK-37030,2026-053P,2026-07-04T15:33:08.451936,15.33522664,.0001427,97.2856,60.5436,81.2552,278.8852,0,U,68220,999,1814,.22094914E-2,.72116E-3,0
STARLINK-37012,2026-053Q,2026-07-04T14:03:06.197760,15.33503848,.00024296,97.2843,60.4768,96.2605,263.8915,0,U,68221,999,1813,.20645847E-2,.67302E-3,0
STARLINK-37110,2026-053R,2026-07-04T17:03:12.064320,15.33477902,.00016534,97.2853,60.6144,106.1917,253.9507,0,U,68222,999,1815,.11092114E-2,.35943E-3,0
STARLINK-37025,2026-053S,2026-07-04T09:09:27.428544,15.33452669,.00019104,97.2845,60.2960,100.1413,260.0046,0,U,68223,999,1810,.87638797E-3,.28332E-3,0
STARLINK-36960,2026-053U,2026-07-04T21:33:21.247776,15.33499085,.00025259,97.2853,60.8188,95.8187,264.3344,0,U,68225,999,1816,.11698437E-2,.37949E-3,0
STARLINK-37038,2026-053V,2026-07-04T21:25:31.689696,15.33492949,.00030468,97.2849,60.8253,92.9341,267.2250,0,U,68226,999,1816,.11821363E-2,.38345E-3,0
STARLINK-37083,2026-053W,2026-07-04T08:57:42.661152,15.33459629,.00017882,97.2855,60.3074,90.3028,269.8420,0,U,68227,999,1807,.97330964E-3,.31493E-3,0
STARLINK-37050,2026-053X,2026-07-04T08:49:53.072832,15.33448094,.00023619,97.2859,60.3147,91.7185,268.4328,0,U,68228,999,1808,.68618262E-3,.22146E-3,0
STARLINK-37081,2026-053Y,2026-07-04T15:56:02.554944,15.33506305,.00018175,97.2827,63.5680,98.0772,262.0677,0,U,68229,999,1834,.1317413E-2,.42781E-3,0
STARLINK-37100,2026-053Z,2026-07-04T02:30:05.439168,15.33462834,.00007277,97.2865,60.0612,81.9812,278.1513,0,U,68230,999,1806,.88237575E-3,.28535E-3,0
STARLINK-37104,2026-053AA,2026-07-04T02:26:10.673088,15.33466276,.00009813,97.2870,60.0618,112.3960,247.7387,0,U,68231,999,1806,.12465302E-2,.4041E-3,0
STARLINK-37027,2026-054A,2026-07-04T11:27:01.035648,15.34439564,.00018932,53.1581,106.4539,92.2354,267.8865,0,U,68232,999,1698,.14982579E-2,.50652E-3,0
STARLINK-37132,2026-054B,2026-07-04T18:48:43.483968,15.34467827,.00007526,53.1605,104.8645,19.5591,340.5440,0,U,68233,999,1703,.17387403E-2,.5896E-3,0
STARLINK-37101,2026-054C,2026-07-04T02:36:45.097056,15.49417934,.00017087,53.1587,109.2170,157.6208,202.4876,0,U,68234,999,1691,.22748799E-2,.128669E-2,0
STARLINK-36963,2026-054D,2026-07-04T12:12:27.803232,15.34478258,.00018609,53.1577,106.6546,91.7625,268.3590,0,U,68235,999,1698,.17096832E-2,.57981E-3,0
STARLINK-37127,2026-054E,2026-07-04T19:06:38.091744,15.49419631,.00009185,53.1581,105.6829,100.7418,259.3695,0,U,68236,999,1702,.23530971E-2,.133194E-2,0
STARLINK-37095,2026-054F,2026-07-04T18:24:36.786816,15.34452554,.00021294,53.1580,105.4231,88.2265,271.8982,0,U,68237,999,1702,.15560692E-2,.52657E-3,0
STARLINK-37097,2026-054G,2026-07-04T19:06:53.730144,15.34474861,.00007471,53.1580,104.8976,48.6009,311.5057,0,U,68238,999,1703,.18763183E-2,.6371E-3,0
STARLINK-37096,2026-054H,2026-07-04T19:12:57.122496,15.34463602,.00022766,53.1594,104.9223,107.0511,253.0742,0,U,68239,999,1703,.18153879E-2,.61591E-3,0
STARLINK-37092,2026-054J,2026-07-04T18:40:02.030592,15.49418999,.00011031,53.1588,105.5616,349.2799,10.8187,0,U,68240,999,1702,.18003034E-2,.101378E-2,0
STARLINK-37094,2026-054K,2026-07-04T18:45:00.028512,15.34466210,.00005232,53.1602,112.7100,63.0035,297.1021,0,U,68241,999,1692,.1800725E-2,.6109E-3,0
STARLINK-36356,2026-054L,2026-07-04T05:14:18.386304,15.30220895,.00011658,53.1585,115.6016,93.0515,267.0620,0,U,68242,999,1683,.10031033E-2,.29487E-3,0
STARLINK-36345,2026-054M,2026-07-04T04:53:39.462144,15.34415267,.00011882,53.1572,107.5881,92.8772,267.2366,0,U,68243,999,1694,.56159407E-3,.18655E-3,0
STARLINK-36310,2026-054N,2026-07-04T22:00:03.000096,15.47140077,.00012655,53.1586,104.6784,97.8070,59.8613,0,U,68244,999,593,-.48765257E-1,-.2215257E-1,0
STARLINK-36247,2026-054P,2026-07-04T12:06:25.023456,15.34443885,.00018362,53.1604,106.6837,76.7473,283.3734,0,U,68245,999,1698,.17895207E-2,.60661E-3,0
STARLINK-37043,2026-054Q,2026-07-04T18:34:28.867872,15.49389251,.00021894,53.1557,105.5282,97.8121,262.3137,0,U,68246,999,1702,.17461179E-2,.98173E-3,0
STARLINK-37044,2026-054R,2026-07-04T18:51:45.824256,15.34470532,.00005375,53.1602,104.8834,38.3832,321.7208,0,U,68247,999,1703,.24055867E-2,.81976E-3,0
STARLINK-36997,2026-054S,2026-07-04T12:38:54.900384,15.34401843,.00010988,53.1616,113.9705,88.3894,271.7235,0,U,68248,999,1688,.13969449E-2,.47121E-3,0
STARLINK-37141,2026-054T,2026-07-04T18:42:40.055328,15.35200912,.0002683,53.1605,104.8463,174.4460,185.6573,0,U,68249,999,1703,.55150726E-3,.18784E-3,0
STARLINK-37087,2026-054U,2026-07-04T18:20:35.715264,15.49386288,.00023281,53.1587,106.1896,87.6753,272.4522,0,U,68250,999,1701,.17516647E-2,.98481E-3,0
STARLINK-36274,2026-054V,2026-07-03T19:54:34.473888,15.30176547,.00007742,53.1578,117.4241,67.0525,293.0557,0,U,68251,999,1677,.85441138E-3,.25013E-3,0
STARLINK-37085,2026-054W,2026-07-04T11:54:17.525952,15.34454532,.00010759,53.1592,106.6229,119.5263,240.5847,0,U,68252,999,1698,.16509396E-2,.55917E-3,0
STARLINK-37086,2026-054X,2026-07-04T11:49:54.278112,15.35449148,.00003026,53.1598,106.6121,221.3479,138.7501,0,U,68253,999,1698,.13458889E-2,.46933E-3,0
STARLINK-37084,2026-054Y,2026-07-04T12:03:23.122080,15.34418598,.00016175,53.1604,106.6664,77.9692,282.1492,0,U,68254,999,1698,.14145262E-2,.47749E-3,0
STARLINK-37075,2026-054Z,2026-07-03T06:33:25.972992,15.49326080,.0001895,53.1583,112.5061,27.3523,332.7585,0,U,68255,999,1679,.10013E-2,.55674E-3,0
STARLINK-36333,2026-054AA,2026-07-04T05:29:29.721408,15.30229624,.00014915,53.1567,115.6443,98.2157,261.9012,0,U,68256,999,1683,.77858744E-3,.22792E-3,0
STARLINK-36745,2026-054AB,2026-07-04T11:57:19.032480,15.34436247,.00019123,53.1590,106.5802,79.5139,280.6079,0,U,68257,999,1698,.1634644E-2,.55326E-3,0
STARLINK-36890,2026-054AC,2026-07-04T19:16:13.467360,15.30226951,.00025885,53.1565,112.8216,95.3826,264.7470,0,U,68258,999,1692,.10917992E-2,.32145E-3,0
STARLINK-36323,2026-054AD,2026-07-04T12:10:42.736512,15.49381645,.00005208,53.1598,106.7065,78.7359,281.3708,0,U,68259,999,1697,.21158118E-2,.119344E-2,0
STARLINK-37056,2026-054AE,2026-07-04T12:24:26.681472,15.34461768,.00002454,53.1608,106.0402,353.6051,6.4949,0,U,68260,999,1699,.14521801E-2,.49107E-3,0
TEN-KOH 2,2025-241B,2026-07-04T12:34:57.484416,15.24096777,.00048856,51.6639,237.1123,194.5659,165.5179,0,U,68261,999,1755,.41370725E-3,.9867E-4,0
STARLINK-37162,2026-055A,2026-07-04T13:23:48.032448,15.34464196,.00005561,53.1572,134.3257,282.6099,77.4841,0,U,68262,999,1785,.19136509E-2,.64974E-3,0
STARLINK-37156,2026-055B,2026-07-04T13:33:36.614304,15.34426555,.00023028,53.1579,135.7943,80.5700,279.5562,0,U,68263,999,1783,.18626502E-2,.63143E-3,0
STARLINK-37163,2026-055C,2026-07-04T20:48:32.969664,15.34451987,.00007741,53.1573,132.6997,78.9284,281.1805,0,U,68264,999,1790,.18524175E-2,.6284E-3,0
STARLINK-37133,2026-055D,2026-07-04T21:31:39.995616,15.34405845,.00007999,53.1578,134.3071,121.5050,238.6030,0,U,68265,999,1788,.12557215E-2,.42298E-3,0
STARLINK-37042,2026-055E,2026-07-04T13:35:55.923072,15.34427299,.00011543,53.1584,134.3780,98.1975,261.9158,0,U,68266,999,1785,.21326152E-2,.72439E-3,0
STARLINK-37103,2026-055F,2026-07-04T13:44:52.987200,15.34458628,.00015452,53.1595,133.7066,89.9886,270.1294,0,U,68267,999,1786,.13726815E-2,.46376E-3,0
STARLINK-36999,2026-055G,2026-07-04T20:06:07.524576,15.34451188,.00027622,53.1531,132.4850,86.5794,273.5524,0,U,68268,999,1790,.19397416E-2,.65849E-3,0
STARLINK-36962,2026-055H,2026-07-04T20:18:14.743872,15.34446407,.00024091,53.1549,132.5447,91.2415,268.8863,0,U,68269,999,1790,.1566124E-2,.52993E-3,0
STARLINK-37028,2026-055J,2026-07-04T21:13:29.213760,15.34444281,.00018655,53.1584,134.2302,99.8662,260.2551,0,U,68270,999,1788,.15680269E-2,.53053E-3,0
STARLINK-37029,2026-055K,2026-07-04T06:32:16.159200,15.34411962,.00013175,53.1580,135.3864,104.9655,255.1494,0,U,68271,999,1781,.66486674E-3,.22162E-3,0
STARLINK-36974,2026-055L,2026-07-04T21:04:32.018304,15.34441745,.00029168,53.1563,134.9268,106.5064,253.6260,0,U,68272,999,1787,.12200395E-2,.41129E-3,0
STARLINK-37019,2026-055M,2026-07-04T20:51:34.736256,15.34449667,.0000877,53.1579,132.7108,81.7608,278.3494,0,U,68273,999,1790,.20208004E-2,.68635E-3,0
STARLINK-37129,2026-055N,2026-07-04T13:29:52.517760,15.34492604,.00019945,53.1569,134.3493,69.8372,290.2845,0,U,68274,999,1785,.25614101E-2,.87437E-3,0
STARLINK-37123,2026-055P,2026-07-04T21:09:44.652384,15.34452331,.00018925,53.1578,132.7853,93.6852,266.4367,0,U,68275,999,1790,.13355224E-2,.45094E-3,0
STARLINK-37125,2026-055Q,2026-07-04T13:17:45.264768,15.34467283,.00006211,53.1576,134.2940,63.7386,296.3680,0,U,68276,999,1785,.15009094E-2,.50787E-3,0
STARLINK-36989,2026-055R,2026-07-04T20:54:36.177984,15.34439964,.00007249,53.1564,132.7043,99.7180,260.3905,0,U,68277,999,1790,.13691565E-2,.46227E-3,0
STARLINK-36982,2026-055S,2026-07-04T20:57:38.026656,15.34442665,.00019701,53.1577,132.7405,91.4598,268.6630,0,U,68278,999,1790,.10784946E-2,.36289E-3,0
STARLINK-36934,2026-055T,2026-07-04T21:03:41.820768,15.34442886,.00022519,53.1579,132.7667,97.0632,263.0627,0,U,68279,999,1790,.13314343E-2,.44941E-3,0
STARLINK-37070,2026-055U,2026-07-04T20:12:11.245248,15.34443242,.00024649,53.1589,132.5130,89.8681,270.2604,0,U,68280,999,1790,.16250955E-2,.55012E-3,0
STARLINK-37134,2026-055V,2026-07-04T13:51:46.473408,15.34445484,.00003336,53.1600,135.8661,74.7104,285.3935,0,U,68281,999,1783,.13733594E-2,.4638E-3,0
